[{"OBJECT_NAME":"STARLINK-1964","OBJECT_ID":"2021-009T","EPOCH":"2026-03-09T21:31:58.383264","MEAN_MOTION":15.67134759,"ECCENTRICITY":0.00046841,"INCLINATION":53.045,"RA_OF_ASC_NODE":328.1813,"ARG_OF_PERICENTER":312.9393,"MEAN_ANOMALY":47.1229,"EPHEMERIS_TYPE":0,"CLASSIFICATION_TYPE":"U","NORAD_CAT_ID":47565,"ELEMENT_SET_NO":999,"REV_AT_EPOCH":28156,"BSTAR":0.00093079288,"MEAN_MOTION_DOT":0.00102212,"MEAN_MOTION_DDOT":0},{"OBJECT_NAME":"STARLINK-11280 [DTC]","OBJECT_ID":"2024-175C","EPOCH":"2026-03-09T06:38:52.231488","MEAN_MOTION":15.69696248,"ECCENTRICITY":0.00013133,"INCLINATION":53.1584,"RA_OF_ASC_NODE":58.1644,"ARG_OF_PERICENTER":66.928,"MEAN_ANOMALY":293.1877,"EPHEMERIS_TYPE":0,"CLASSIFICATION_TYPE":"U","NORAD_CAT_ID":61245,"ELEMENT_SET_NO":999,"REV_AT_EPOCH":8330,"BSTAR":1.4806052e-5,"MEAN_MOTION_DOT":1.204e-5,"MEAN_MOTION_DDOT":0}]
